IRIDIUM 63              
1 25286U 98021B   25293.76437655  .00000817  00000+0  27088-3 0  9990
2 25286  86.4026  29.4281 0001953  97.9457 262.1962 14.36669300441876
IRIDIUM 69              
1 25319U 98026A   25293.80763191  .00001159  00000+0  35378-3 0  9995
2 25319  86.4000  42.3005 0002099  24.1495 335.9803 14.41122113441155
IRIDIUM 71              
1 25320U 98026B   25293.79887770  .00000588  00000+0  17586-3 0  9991
2 25320  86.4007  36.9813 0003663  62.7830 297.3742 14.41267240441681
IRIDIUM 73              
1 25344U 98032C   25293.91893461  .00000998  00000+0  24269-3 0  9993
2 25344  86.4455 353.4320 0001613  86.2191 273.9199 14.51890322448809
IRIDIUM 82              
1 25467U 98051A   25293.81806489  .00068648  00000+0  15284-2 0  9995
2 25467  86.3650  47.6132 0071281 177.2430 182.9233 15.40650906443230
